[{"OBJECT_NAME":"STARLINK-2705","OBJECT_ID":"2021-044AL","EPOCH":"2026-03-09T08:07:12.850752","MEAN_MOTION":15.31035302,"ECCENTRICITY":0.00015812,"INCLINATION":53.1598,"RA_OF_ASC_NODE":105.8091,"ARG_OF_PERICENTER":77.9359,"MEAN_ANOMALY":282.1819,"EPHEMERIS_TYPE":0,"CLASSIFICATION_TYPE":"U","NORAD_CAT_ID":48672,"ELEMENT_SET_NO":999,"REV_AT_EPOCH":26390,"BSTAR":-0.00015241071,"MEAN_MOTION_DOT":-4.992e-5,"MEAN_MOTION_DDOT":0},{"OBJECT_NAME":"SCS-01 M","OBJECT_ID":"2025-100M","EPOCH":"2026-03-09T23:50:15.541152","MEAN_MOTION":15.31880861,"ECCENTRICITY":0.00078021,"INCLINATION":97.3725,"RA_OF_ASC_NODE":145.6908,"ARG_OF_PERICENTER":292.3826,"MEAN_ANOMALY":67.6588,"EPHEMERIS_TYPE":0,"CLASSIFICATION_TYPE":"U","NORAD_CAT_ID":63993,"ELEMENT_SET_NO":999,"REV_AT_EPOCH":4565,"BSTAR":0.0012010051,"MEAN_MOTION_DOT":0.00037061,"MEAN_MOTION_DDOT":0}]
